{
    "links": {
        "self": "http://www.neowsapp.com/rest/v1/neo/3828425?api_key=iIulBulltgU6a56xZRHN4H3l9WmuAYTsLGpBGhQ2"
    },
    "id": "3828425",
    "neo_reference_id": "3828425",
    "name": "(2018 RB5)",
    "designation": "2018 RB5",
    "nasa_jpl_url": "http://ssd.jpl.nasa.gov/sbdb.cgi?sstr=3828425",
    "absolute_magnitude_h": 24.9,
    "estimated_diameter": {
        "kilometers": {
            "estimated_diameter_min": 0.0278326768,
            "estimated_diameter_max": 0.0622357573
        },
        "meters": {
            "estimated_diameter_min": 27.8326768072,
            "estimated_diameter_max": 62.2357573367
        },
        "miles": {
            "estimated_diameter_min": 0.0172944182,
            "estimated_diameter_max": 0.0386714948
        },
        "feet": {
            "estimated_diameter_min": 91.3145593761,
            "estimated_diameter_max": 204.1855621004
        }
    },
    "is_potentially_hazardous_asteroid": false,
    "close_approach_data": [
        {
            "close_approach_date": "2018-06-20",
            "close_approach_date_full": "2018-Jun-20 13:54",
            "epoch_date_close_approach": 1529502840000,
            "relative_velocity": {
                "kilometers_per_second": "7.1243145287",
                "kilometers_per_hour": "25647.5323032304",
                "miles_per_hour": "15936.3791691934"
            },
            "miss_distance": {
                "astronomical": "0.0568171595",
                "lunar": "22.1018750455",
                "kilometers": "8499726.040650265",
                "miles": "5281484.855953057"
            },
            "orbiting_body": "Mars"
        },
        {
            "close_approach_date": "2018-09-20",
            "close_approach_date_full": "2018-Sep-20 00:12",
            "epoch_date_close_approach": 1537402320000,
            "relative_velocity": {
                "kilometers_per_second": "4.1199514425",
                "kilometers_per_hour": "14831.8251931485",
                "miles_per_hour": "9215.9193818205"
            },
            "miss_distance": {
                "astronomical": "0.0989952028",
                "lunar": "38.5091338892",
                "kilometers": "14809471.479098036",
                "miles": "9202178.8664074568"
            },
            "orbiting_body": "Earth"
        }
    ],
    "orbital_data": {
        "orbit_id": "4",
        "orbit_determination_date": "2018-09-30 06:45:39",
        "first_observation_date": "2018-09-11",
        "last_observation_date": "2018-09-30",
        "data_arc_in_days": 19,
        "observations_used": 51,
        "orbit_uncertainty": "7",
        "minimum_orbit_intersection": ".0987917",
        "jupiter_tisserand_invariant": "4.180",
        "epoch_osculation": "2459000.5",
        "eccentricity": ".3456991407574924",
        "semi_major_axis": "1.666574972664187",
        "inclination": "4.849915390793476",
        "ascending_node_longitude": "329.842169700221",
        "orbital_period": "785.8428576735201",
        "perihelion_distance": "1.090441436606236",
        "perihelion_argument": "36.18872499040998",
        "aphelion_distance": "2.242708508722138",
        "perihelion_time": "2459177.001146800814",
        "mean_anomaly": "279.1436147470961",
        "mean_motion": ".4581068549325197",
        "equinox": "J2000",
        "orbit_class": {
            "orbit_class_type": "AMO",
            "orbit_class_description": "Near-Earth asteroid orbits similar to that of 1221 Amor",
            "orbit_class_range": "1.017 AU < q (perihelion) < 1.3 AU"
        }
    },
    "is_sentry_object": false
}